STARLINK-37898          
1 69705U 26147B   26203.25002315 -.02532451  00000+0 -30320-1 0  9990
2 69705  97.2848 240.0074 0001541  91.7837 132.4885 15.64473256  4873
STARLINK-37970          
1 69706U 26147C   26203.25002315 -.02480232  00000+0 -30223-1 0  9992
2 69706  97.2847 240.0060 0001577  92.5529 128.3371 15.63950759  4875
STARLINK-37975          
1 69707U 26147D   26203.25002315 -.02565979  00000+0 -25235-1 0  9992
2 69707  97.2842 240.0314 0001532  86.1151 192.0590 15.69355263  4870
STARLINK-37972          
1 69708U 26147E   26203.06597513  .00078650  00000+0  40875-3 0  9991
2 69708  97.2826 239.8578 0000564 348.1346  11.9908 15.80757755  4947
STARLINK-37963          
1 69709U 26147F   26203.25002315 -.01007744  00000+0 -10948-1 0  9999
2 69709  97.2844 240.0224 0001360  67.5543 187.2844 15.66043757  4878
STARLINK-37969          
1 69710U 26147G   26203.25002315 -.02500340  00000+0 -27815-1 0  9993
2 69710  97.2841 240.0229 0001516  90.3474 169.9113 15.66255726  5027
STARLINK-37956          
1 69711U 26147H   26203.25002315 -.02508917  00000+0 -31542-1 0  9994
2 69711  97.2845 240.0126 0001767  94.1261 140.8409 15.63202763  4870
STARLINK-38043          
1 69712U 26147J   26203.25002315 -.02018265  00000+0 -13054-1 0  9995
2 69712  97.2838 240.0586 0001528  85.2810 255.5321 15.79286930  4871
STARLINK-38020          
1 69713U 26147K   26203.25002315 -.02491063  00000+0 -29498-1 0  9996
2 69713  97.2845 240.0186 0001368  85.2866 164.9315 15.64689607  4877
STARLINK-38059          
1 69714U 26147L   26203.25002315 -.02482128  00000+0 -30822-1 0  9992
2 69714  97.2846 240.0158 0001559  87.6694 154.4509 15.63477621  4874
STARLINK-38061          
1 69715U 26147M   26203.25002315 -.02535348  00000+0 -26560-1 0  9990
2 69715  97.2841 240.0411 0001402  83.1987 216.2902 15.67782553  4966
STARLINK-38060          
1 69716U 26147N   26203.06088561  .00284353  00000+0  15221-2 0  9993
2 69716  97.2828 239.8651 0009143 226.5268 133.5240 15.79505578  4946
STARLINK-38040          
1 69717U 26147P   26203.25002315 -.02658528  00000+0 -29102-1 0  9993
2 69717  97.2842 240.0427 0001303  78.9875 224.3241 15.66889687  4965
STARLINK-37989          
1 69718U 26147Q   26203.25002315 -.02505851  00000+0 -27253-1 0  9999
2 69718  97.2844 240.0315 0001574  77.1959 202.5994 15.66820752  4969
STARLINK-38039          
1 69719U 26147R   26202.55130810  .00233260  00000+0  11825-2 0  9991
2 69719  97.2833 239.3333 0002358  67.0568 293.0949 15.80885144  4860
STARLINK-38003          
1 69720U 26147S   26203.25002315 -.02490824  00000+0 -18409-1 0  9998
2 69720  97.2839 240.0703 0001373  66.9627 304.7371 15.76511515  4961
STARLINK-38014          
1 69721U 26147T   26203.25002315 -.02506767  00000+0 -19777-1 0  9992
2 69721  97.2839 240.0712 0001441  69.1146 302.1221 15.75059215  4968
STARLINK-37915          
1 69722U 26147U   26203.25002315 -.01886759  00000+0 -13619-1 0  9993
2 69722  97.2838 240.0738 0001639  52.0621 327.5741 15.76614197  4969
STARLINK-38007          
1 69723U 26147V   26203.05778071  .00628832  00000+0  29826-2 0  9992
2 69723  97.2840 239.8690 0004824 248.5651 111.5103 15.81328460  4942
STARLINK-38008          
1 69724U 26147W   26203.24514183 -.00796844  00000+0 -54698-2 0  9992
2 69724  97.2838 240.0746 0002199 147.9884 212.1516 15.76746383  4970
STARLINK-38021          
1 69725U 26147X   26203.25002315 -.02492066  00000+0 -20557-1 0  9990
2 69725  97.2840 240.0740 0001440  75.1426 303.6404 15.74015190  4964
STARLINK-38015          
1 69726U 26147Y   26203.25002315 -.00100972  00000+0 -68329-3 0  9992
2 69726  97.2852 240.0454 0001337  79.4174 228.1293 15.75217582  4969
STARLINK-38010          
1 69727U 26147Z   26203.09977214  .00230202  00000+0  15045-2 0  9998
2 69727  97.2843 239.8108 0001210  37.2877 322.8472 15.75166213  4947
SXM-11                  
1 69728U 26148A   26203.25183655  .00000014  00000+0  00000+0 0  9994
2 69728   0.0937 264.6119 0002101 190.3702 175.1395  1.00271321   398
HAIYANG-2E              
1 69737U 26149A   26202.46990076 -.00000037  00000+0  71785-5 0  9990
2 69737  99.3443 209.3095 0001544  84.4295 275.7033 13.79299087  2688
CZ-4B R/B               
1 69738U 26149B   26203.04802211  .00000083  00000+0  44283-4 0  9991
2 69738  99.3220 211.5565 0197859 310.3076  48.0958 14.30069406  3116
STARLINK-38033          
1 69739U 26150A   26203.04769103  .00270853  00000+0  13674-2 0  9998
2 69739  97.2853  41.8062 0001331 156.1386 203.9944 15.80878499  4407
STARLINK-38076          
1 69740U 26150B   26203.28146406  .00264199  00000+0  17046-2 0  9994
2 69740  97.2852  41.9446 0001436  23.3545 336.7785 15.75370734  4437
STARLINK-38074          
1 69741U 26150C   26203.05911901  .00220765  00000+0  14365-2 0  9992
2 69741  97.2856  41.7895 0001052  49.6779 310.4578 15.75295322  4407
STARLINK-38041          
1 69742U 26150D   26203.06864670  .00216324  00000+0  14151-2 0  9993
2 69742  97.2857  41.7778 0001593  96.3682 263.7765 15.75185025  4407
