OBJECT_NAME,OBJECT_ID,EPOCH,MEAN_MOTION,ECCENTRICITY,INCLINATION,RA_OF_ASC_NODE,ARG_OF_PERICENTER,MEAN_ANOMALY,EPHEMERIS_TYPE,CLASSIFICATION_TYPE,NORAD_CAT_ID,ELEMENT_SET_NO,REV_AT_EPOCH,BSTAR,MEAN_MOTION_DOT,MEAN_MOTION_DDOT
STARLINK-37898,2026-147B,2026-07-22T06:00:02.000160,15.64473256,.00015413,97.2848,240.0074,91.7837,132.4885,0,U,69705,999,487,-.303202E-1,-.2532451E-1,0
STARLINK-37970,2026-147C,2026-07-22T06:00:02.000160,15.63950759,.00015771,97.2847,240.0060,92.5529,128.3371,0,U,69706,999,487,-.30223422E-1,-.2480232E-1,0
STARLINK-37975,2026-147D,2026-07-22T06:00:02.000160,15.69355263,.00015327,97.2842,240.0314,86.1151,192.0590,0,U,69707,999,487,-.25235312E-1,-.2565979E-1,0
STARLINK-37972,2026-147E,2026-07-22T01:35:00.251232,15.80757755,.00005645,97.2826,239.8578,348.1346,11.9908,0,U,69708,999,494,.40874829E-3,.7865E-3,0
STARLINK-37963,2026-147F,2026-07-22T06:00:02.000160,15.66043757,.000136,97.2844,240.0224,67.5543,187.2844,0,U,69709,999,487,-.10947798E-1,-.1007744E-1,0
STARLINK-37969,2026-147G,2026-07-22T06:00:02.000160,15.66255726,.00015166,97.2841,240.0229,90.3474,169.9113,0,U,69710,999,502,-.27814822E-1,-.250034E-1,0
STARLINK-37956,2026-147H,2026-07-22T06:00:02.000160,15.63202763,.00017678,97.2845,240.0126,94.1261,140.8409,0,U,69711,999,487,-.31542354E-1,-.2508917E-1,0
STARLINK-38043,2026-147J,2026-07-22T06:00:02.000160,15.79286930,.00015281,97.2838,240.0586,85.2810,255.5321,0,U,69712,999,487,-.13053541E-1,-.2018265E-1,0
STARLINK-38020,2026-147K,2026-07-22T06:00:02.000160,15.64689607,.00013684,97.2845,240.0186,85.2866,164.9315,0,U,69713,999,487,-.29497689E-1,-.2491063E-1,0
STARLINK-38059,2026-147L,2026-07-22T06:00:02.000160,15.63477621,.00015592,97.2846,240.0158,87.6694,154.4509,0,U,69714,999,487,-.30822314E-1,-.2482128E-1,0
STARLINK-38061,2026-147M,2026-07-22T06:00:02.000160,15.67782553,.00014021,97.2841,240.0411,83.1987,216.2902,0,U,69715,999,496,-.26560326E-1,-.2535348E-1,0
STARLINK-38060,2026-147N,2026-07-22T01:27:40.516704,15.79505578,.00091439,97.2828,239.8651,226.5268,133.5240,0,U,69716,999,494,.15220694E-2,.284353E-2,0
STARLINK-38040,2026-147P,2026-07-22T06:00:02.000160,15.66889687,.00013034,97.2842,240.0427,78.9875,224.3241,0,U,69717,999,496,-.29101516E-1,-.2658528E-1,0
STARLINK-37989,2026-147Q,2026-07-22T06:00:02.000160,15.66820752,.00015748,97.2844,240.0315,77.1959,202.5994,0,U,69718,999,496,-.27252726E-1,-.2505851E-1,0
STARLINK-38039,2026-147R,2026-07-21T13:13:53.019840,15.80885144,.00023584,97.2833,239.3333,67.0568,293.0949,0,U,69719,999,486,.11824531E-2,.23326E-2,0
STARLINK-38003,2026-147S,2026-07-22T06:00:02.000160,15.76511515,.00013732,97.2839,240.0703,66.9627,304.7371,0,U,69720,999,496,-.184089E-1,-.2490824E-1,0
STARLINK-38014,2026-147T,2026-07-22T06:00:02.000160,15.75059215,.00014418,97.2839,240.0712,69.1146,302.1221,0,U,69721,999,496,-.19777166E-1,-.2506767E-1,0
STARLINK-37915,2026-147U,2026-07-22T06:00:02.000160,15.76614197,.00016394,97.2838,240.0738,52.0621,327.5741,0,U,69722,999,496,-.13618785E-1,-.1886759E-1,0
STARLINK-38007,2026-147V,2026-07-22T01:23:12.253344,15.81328460,.00048242,97.2840,239.8690,248.5651,111.5103,0,U,69723,999,494,.2982555E-2,.628832E-2,0
STARLINK-38008,2026-147W,2026-07-22T05:53:00.254112,15.76746383,.00021999,97.2838,240.0746,147.9884,212.1516,0,U,69724,999,497,-.5469762E-2,-.796844E-2,0
STARLINK-38021,2026-147X,2026-07-22T06:00:02.000160,15.74015190,.00014408,97.2840,240.0740,75.1426,303.6404,0,U,69725,999,496,-.20556574E-1,-.2492066E-1,0
STARLINK-38015,2026-147Y,2026-07-22T06:00:02.000160,15.75217582,.00013374,97.2852,240.0454,79.4174,228.1293,0,U,69726,999,496,-.68328918E-3,-.100972E-2,0
STARLINK-38010,2026-147Z,2026-07-22T02:23:40.312896,15.75166213,.00012107,97.2843,239.8108,37.2877,322.8472,0,U,69727,999,494,.15045493E-2,.230202E-2,0
SXM-11,2026-148A,2026-07-22T06:02:38.677920,1.00271321,.00021016,0.0937,264.6119,190.3702,175.1395,0,U,69728,999,39,0,.14E-6,0
HAIYANG-2E,2026-149A,2026-07-21T11:16:39.425664,13.79299087,.00015448,99.3443,209.3095,84.4295,275.7033,0,U,69737,999,268,.7178512E-5,-.37E-6,0
CZ-4B R/B,2026-149B,2026-07-22T01:09:09.110304,14.30069406,.01978592,99.3220,211.5565,310.3076,48.0958,0,U,69738,999,311,.44282771E-4,.83E-6,0
STARLINK-38033,2026-150A,2026-07-22T01:08:40.504992,15.80878499,.00013315,97.2853,41.8062,156.1386,203.9944,0,U,69739,999,440,.13674223E-2,.270853E-2,0
STARLINK-38076,2026-150B,2026-07-22T06:45:18.494784,15.75370734,.00014367,97.2852,41.9446,23.3545,336.7785,0,U,69740,999,443,.17045722E-2,.264199E-2,0
STARLINK-38074,2026-150C,2026-07-22T01:25:07.882464,15.75295322,.00010526,97.2856,41.7895,49.6779,310.4578,0,U,69741,999,440,.14364827E-2,.220765E-2,0
STARLINK-38041,2026-150D,2026-07-22T01:38:51.074880,15.75185025,.00015936,97.2857,41.7778,96.3682,263.7765,0,U,69742,999,440,.14150655E-2,.216324E-2,0
